#aV2016  4 19  0  0  0.00000000     288 DD+AD WGS84 FIT  NGA
## 1893 172800.00000000   300.00000000 57497 0.0000000000000
+   31     1  2  3  5  6  7  8  9 10 11 12 13 14 15 16 17 18
+         19 20 21 22 23 24 25 26 27 28 29 30 31 32  0  0  0
+          0  0  0  0  0  0  0  0  0  0  0  0  0  0  0  0  0
+          0  0  0  0  0  0  0  0  0  0  0  0  0  0  0  0  0
+          0  0  0  0  0  0  0  0  0  0  0  0  0  0  0  0  0
++         2  2  2  2  2  2  2  2  2  2  2  2  2  2  2  2  2
++         2  2  2  2  2  2  2  2  2  2  2  2  2  2  0  0  0
++         0  0  0  0  0  0  0  0  0  0  0  0  0  0  0  0  0
++         0  0  0  0  0  0  0  0  0  0  0  0  0  0  0  0  0
++         0  0  0  0  0  0  0  0  0  0  0  0  0  0  0  0  0
%c cc cc ccc ccc cccc cccc cccc cccc ccccc ccccc ccccc ccccc
%c cc cc ccc ccc cccc cccc cccc cccc ccccc ccccc ccccc ccccc
%f  0.0000000  0.000000000  0.00000000000  0.000000000000000
%f  0.0000000  0.000000000  0.00000000000  0.000000000000000
%i    0    0    0    0      0      0      0      0         0
%i    0    0    0    0      0      0      0      0         0
/*      NGA, ST. LOUIS,MO.                                  
/*   EPHEMERIS COMPUTED FROM 2 DAYS OF DATA                 
/*   EPOCHA v2.4 SMOOTHER                                   
/*   G1762 IERS2010 SATAF SATAPC                            
*  2016  4 19  0 10  0.00000000
P  1  13684.254857 -10106.492937  20261.694396     17.752155                    
V  1   2143.476694  25886.291453  11647.142960      0.011445                    
P  2 -14020.249222 -13735.527445 -17638.884099    596.376127                    
V  2   -157.975488 -23248.525922  17398.355373     -0.019033                    
P  3  22972.003899 -13227.009449   1753.419680    -48.950092                    
V  3   -338.136282   3592.936451  31618.600399     -0.040462                    
P  5 -19937.073681  -2079.473556 -17590.143303   -127.811707                    
V  5  17575.735981 -13629.965159 -18182.265351      0.031507                    
P  6  -6479.795694 -24600.700932  -7617.973503    177.771369                    
V  6   2098.706987  -9801.840508  29812.037601      0.056224                    
P  7   6300.200562 -23566.308074  -9867.227236    459.353928                    
V  7   2976.110826  12783.838643 -28643.075693     -0.020831                    
P  8  24059.585261   3950.951907  10629.268268    -31.912316                    
V  8  10869.558525   8190.952735 -27756.297359     -0.014463                    
P  9   8068.098655 -13083.916906 -21677.010091    112.595184                    
V  9  24453.010918  12589.633384   1488.803245      0.074241                    
P 10   -741.176545  17278.279129  20158.550303     -1.516877                    
V 10 -22093.105547  12938.909492 -11973.097143     -0.095828                    
P 11  15755.017415  -4595.346040  20334.893092   -641.730564                    
V 11  10648.723991  25226.331052  -2438.683568     -0.030180                    
P 12 -23978.134693   9956.171095   4885.425164    376.794088                    
V 12   4551.317828  -4914.469369  31747.372950      0.013522                    
P 13 -23173.737117 -12159.796354   4112.882634    -11.887449                    
V 13  -3080.056905  -5093.743949 -31487.759153     -0.027072                    
P 14  10517.161157  19135.792070  15489.416201     -9.123224                    
V 14 -17193.117330  -8587.064745  22500.200252     -0.021246                    
P 15 -23344.596275     70.230965  12856.063085   -307.085488                    
V 15 -13910.149120  -9235.422256 -24619.491704     -0.017440                    
P 16  19131.659044   3306.575810 -18404.224251    -23.584173                    
V 16 -19773.495426  11674.060739 -18177.632233      0.027370                    
P 17  -8138.969446 -18489.701489  17669.782774   -203.215551                    
V 17  19386.764650   9779.304674  19347.989992     -0.002689                    
P 18 -11686.911663  20055.923837  13205.064617    506.184730                    
V 18 -15062.236839   6511.337023 -24475.349817      0.041937                    
P 19 -16721.380980 -18128.281150   9099.401014   -525.641710                    
V 19  11467.935318   4333.830976  29337.092686     -0.000537                    
P 20 -23046.422966  11854.805162  -6080.578956    406.846901                    
V 20   3779.859943  -7507.121197 -29652.956163      0.024372                    
P 21  -2625.499202  25403.163580  -6031.711997   -519.585888                    
V 21  -4430.979581  -8408.658627 -30063.247810     -0.014659                    
P 22  23590.038705  -5940.753584  11116.814860    359.920807                    
V 22  -9553.487137  10432.823185  26263.323222     -0.074836                    
P 23  18352.167295  -5452.796965 -18404.207742   -170.009120                    
V 23  20323.299369  12166.489224  16059.775624     -0.017397                    
P 24 -14652.038237   6617.864240  21054.105470    -15.732069                    
V 24  -2612.799202 -26827.170516   6787.589556     -0.006429                    
P 25 -19125.880371  17210.123578  -6286.721680   -155.623162                    
V 25  -7855.088670   2287.362879  30935.290291     -0.070799                    
P 26  10659.400746  11118.517229 -21646.005816   -335.234720                    
V 26 -22884.833023  15199.705184  -3415.186331     -0.134158                    
P 27  23868.069455  11847.172150    490.618212     83.618308                    
V 27   -493.678464   2394.163173 -31861.918305      0.038961                    
P 28   3073.378759 -17093.734761  20709.455882    517.133265                    
V 28  22176.675893 -11199.019854 -12976.549832      0.025926                    
P 29 -11519.348254  10170.690573 -21643.987882    656.975373                    
V 29 -23444.189004 -14327.237794   5786.884382      0.002603                    
P 30    584.953125 -26502.776178     29.783024    117.885844                    
V 30   3174.440092     22.262900 -31624.383699      0.034343                    
P 31   7272.786851  23169.731533 -10211.765206    273.083586                    
V 31  -2334.183282  13255.246955  28482.402824     -0.017731                    
P 32  11187.370547  18154.278989  15841.558520      4.304642                    
V 32 -18794.680126  -7407.111958  21759.774055     -0.035499                    
EOF
